CALSPHERE 1             
1 00900U 64063C   22328.48132477  .00000539  00000+0  56393-3 0  9996
2 00900  90.1841  43.8929 0025390 257.6306 232.3610 13.73979651892633
CALSPHERE 2             
1 00902U 64063E   22328.22634932  .00000070  00000+0  91311-4 0  9993
2 00902  90.1992  47.0801 0019774  48.5396   9.8559 13.52728062680372
LCS 1                   
1 01361U 65034C   22328.47161835  .00000005  00000+0 -45442-3 0  9998
2 01361  32.1460  25.3544 0011461  84.6984 275.4821  9.89301937 81078
TEMPSAT 1               
1 01512U 65065E   22328.52927267  .00000057  00000+0  97046-4 0  9999
2 01512  89.9251 217.3995 0068522 301.9807 175.4554 13.33462127786703
CALSPHERE 4A            
1 01520U 65065H   22328.48647043  .00000085  00000+0  14572-3 0  9997
2 01520  89.9799 129.9876 0069477 171.0450 252.3359 13.35917601789025
OPS 5712 (P/L 160)      
1 02826U 67053A   22328.40310691  .00002268  00000+0  58313-3 0  9990
2 02826  69.9281 273.6383 0002902 178.8470 181.2671 14.51434614875936
OPS 5712 (P/L 153)      
1 02874U 67053H   22328.44780398  .00000036  00000+0  64573-4 0  9999
2 02874  69.9753  22.4412 0004318  80.1016 280.0577 13.96429412825161
SURCAL 150B             
1 02909U 67053J   22328.33760833  .00003560  00000+0  66953-3 0  9996
2 02909  69.9473 255.2645 0003952 223.8673 136.2156 14.65446808887024
RIGIDSPHERE 2 (LCS 4)   
1 05398U 71067E   22328.52110445  .00000463  00000+0  15487-3 0  9995
2 05398  87.6208 338.8516 0061708 215.6132 144.0941 14.34402031687202
COSMOS 2493 (SKRL-756 1)
1 39490U 13078A   22328.52210055  .00001555  00000+0  15884-3 0  9995
2 39490  82.4185  80.7377 0015667 286.8996  73.0504 14.89906457483850
COSMOS 2494 (SKRL-756 2)
1 39491U 13078B   22328.54135572  .00001703  00000+0  16755-3 0  9991
2 39491  82.4189  74.1460 0020126 259.6304 100.2646 14.91394691484116
